{
  "type": "FeatureCollection",
  "features": [
    {
      "type": "Feature",
      "properties": {
        "norad_id": 29975,
        "name": "FENGYUN 1C DEB",
        "group": "fengyun-1c-debris",
        "lat": -46.50921519261978,
        "lon": 37.84646857364236,
        "alt_km": 866.3337373415125,
        "timestamp": "2025-12-12T18:57:44.402629+00:00",
        "meta_object_name": "FENGYUN 1C DEB",
        "meta_object_id": "1999-025KZ",
        "meta_epoch": "2025-12-12T02:08:21.731424",
        "meta_mean_motion": 13.98025559,
        "meta_eccentricity": 0.01136033,
        "meta_inclination": 99.3397,
        "meta_ra_of_asc_node": 27.1434,
        "meta_arg_of_pericenter": 15.5069,
        "meta_mean_anomaly": 12.4521,
        "meta_ephemeris_type": 0,
        "meta_classification_type": "U",
        "meta_norad_cat_id": 29975,
        "meta_element_set_no": 999,
        "meta_rev_at_epoch": 96428,
        "meta_bstar": 8.2709023e-05,
        "meta_mean_motion_dot": 7.8e-07,
        "meta_mean_motion_ddot": 0,
        "tle_line1": "1 29975U 99025KZ  25346.08914041  .00000078  00000+0  82709-4 0  9998",
        "tle_line2": "2 29975  99.3397  27.1434 0113603  15.5069  12.4521 13.98025559964286"
      },
      "geometry": {
        "type": "Point",
        "coordinates": [
          37.84646857364236,
          -46.50921519261978
        ]
      }
    },
    {
      "type": "Feature",
      "properties": {
        "norad_id": 29976,
        "name": "FENGYUN 1C DEB",
        "group": "fengyun-1c-debris",
        "lat": 51.4520217710828,
        "lon": 175.46239445253667,
        "alt_km": 963.299608105639,
        "timestamp": "2025-12-12T18:57:44.402639+00:00",
        "meta_object_name": "FENGYUN 1C DEB",
        "meta_object_id": "1999-025LA",
        "meta_epoch": "2025-12-12T06:38:37.159008",
        "meta_mean_motion": 13.98107574,
        "meta_eccentricity": 0.02674905,
        "meta_inclination": 98.918,
        "meta_ra_of_asc_node": 343.5981,
        "meta_arg_of_pericenter": 240.8073,
        "meta_mean_anomaly": 187.6454,
        "meta_ephemeris_type": 0,
        "meta_classification_type": "U",
        "meta_norad_cat_id": 29976,
        "meta_element_set_no": 999,
        "meta_rev_at_epoch": 96330,
        "meta_bstar": 0.00036290957,
        "meta_mean_motion_dot": 6.55e-06,
        "meta_mean_motion_ddot": 0,
        "tle_line1": "1 29976U 99025LA  25346.27681897  .00000655  00000+0  36291-3 0  9995",
        "tle_line2": "2 29976  98.9180 343.5981 0267490 240.8073 187.6454 13.98107574963306"
      },
      "geometry": {
        "type": "Point",
        "coordinates": [
          175.46239445253667,
          51.4520217710828
        ]
      }
    },
    {
      "type": "Feature",
      "properties": {
        "norad_id": 29977,
        "name": "FENGYUN 1C DEB",
        "group": "fengyun-1c-debris",
        "lat": 62.28672482129762,
        "lon": -167.49569109166933,
        "alt_km": 960.7700375473205,
        "timestamp": "2025-12-12T18:57:44.402649+00:00",
        "meta_object_name": "FENGYUN 1C DEB",
        "meta_object_id": "1999-025LB",
        "meta_epoch": "2025-12-12T02:18:18.129024",
        "meta_mean_motion": 14.05081574,
        "meta_eccentricity": 0.01284341,
        "meta_inclination": 98.3967,
        "meta_ra_of_asc_node": 208.1916,
        "meta_arg_of_pericenter": 258.7844,
        "meta_mean_anomaly": 255.6491,
        "meta_ephemeris_type": 0,
        "meta_classification_type": "U",
        "meta_norad_cat_id": 29977,
        "meta_element_set_no": 999,
        "meta_rev_at_epoch": 96351,
        "meta_bstar": 0.0020698225,
        "meta_mean_motion_dot": 3.553e-05,
        "meta_mean_motion_ddot": 0,
        "tle_line1": "1 29977U 99025LB  25346.09604316  .00003553  00000+0  20698-2 0  9990",
        "tle_line2": "2 29977  98.3967 208.1916 0128434 258.7844 255.6491 14.05081574963516"
      },
      "geometry": {
        "type": "Point",
        "coordinates": [
          -167.49569109166933,
          62.28672482129762
        ]
      }
    },
    {
      "type": "Feature",
      "properties": {
        "norad_id": 29978,
        "name": "FENGYUN 1C DEB",
        "group": "fengyun-1c-debris",
        "lat": 33.34458019458763,
        "lon": -136.7360714092454,
        "alt_km": 909.2894720831318,
        "timestamp": "2025-12-12T18:57:44.402659+00:00",
        "meta_object_name": "FENGYUN 1C DEB",
        "meta_object_id": "1999-025LC",
        "meta_epoch": "2025-12-12T03:02:54.623040",
        "meta_mean_motion": 13.95906767,
        "meta_eccentricity": 0.00766823,
        "meta_inclination": 99.0615,
        "meta_ra_of_asc_node": 36.5843,
        "meta_arg_of_pericenter": 53.9344,
        "meta_mean_anomaly": 0.9577,
        "meta_ephemeris_type": 0,
        "meta_classification_type": "U",
        "meta_norad_cat_id": 29978,
        "meta_element_set_no": 999,
        "meta_rev_at_epoch": 96308,
        "meta_bstar": 1.679159e-05,
        "meta_mean_motion_dot": -2e-07,
        "meta_mean_motion_ddot": 0,
        "tle_line1": "1 29978U 99025LC  25346.12702110 -.00000020  00000+0  16792-4 0  9995",
        "tle_line2": "2 29978  99.0615  36.5843 0076682  53.9344   0.9577 13.95906767963080"
      },
      "geometry": {
        "type": "Point",
        "coordinates": [
          -136.7360714092454,
          33.34458019458763
        ]
      }
    },
    {
      "type": "Feature",
      "properties": {
        "norad_id": 29979,
        "name": "FENGYUN 1C DEB",
        "group": "fengyun-1c-debris",
        "lat": 13.570210335555704,
        "lon": -167.96621272438338,
        "alt_km": 729.1250738391782,
        "timestamp": "2025-12-12T18:57:44.402670+00:00",
        "meta_object_name": "FENGYUN 1C DEB",
        "meta_object_id": "1999-025LD",
        "meta_epoch": "2025-12-12T01:28:06.993984",
        "meta_mean_motion": 14.25961081,
        "meta_eccentricity": 0.0107551,
        "meta_inclination": 98.3704,
        "meta_ra_of_asc_node": 9.3007,
        "meta_arg_of_pericenter": 164.9214,
        "meta_mean_anomaly": 221.5072,
        "meta_ephemeris_type": 0,
        "meta_classification_type": "U",
        "meta_norad_cat_id": 29979,
        "meta_element_set_no": 999,
        "meta_rev_at_epoch": 98064,
        "meta_bstar": 0.00062727986,
        "meta_mean_motion_dot": 1.549e-05,
        "meta_mean_motion_ddot": 0,
        "tle_line1": "1 29979U 99025LD  25346.06119206  .00001549  00000+0  62728-3 0  9992",
        "tle_line2": "2 29979  98.3704   9.3007 0107551 164.9214 221.5072 14.25961081980647"
      },
      "geometry": {
        "type": "Point",
        "coordinates": [
          -167.96621272438338,
          13.570210335555704
        ]
      }
    },
    {
      "type": "Feature",
      "properties": {
        "norad_id": 29980,
        "name": "FENGYUN 1C DEB",
        "group": "fengyun-1c-debris",
        "lat": 81.30277321890061,
        "lon": 55.55058555600805,
        "alt_km": 922.07354633459,
        "timestamp": "2025-12-12T18:57:44.402680+00:00",
        "meta_object_name": "FENGYUN 1C DEB",
        "meta_object_id": "1999-025LE",
        "meta_epoch": "2025-12-12T00:18:15.977952",
        "meta_mean_motion": 14.06314025,
        "meta_eccentricity": 0.0086876,
        "meta_inclination": 98.5514,
        "meta_ra_of_asc_node": 155.2078,
        "meta_arg_of_pericenter": 249.8951,
        "meta_mean_anomaly": 228.4395,
        "meta_ephemeris_type": 0,
        "meta_classification_type": "U",
        "meta_norad_cat_id": 29980,
        "meta_element_set_no": 999,
        "meta_rev_at_epoch": 96982,
        "meta_bstar": 0.00033802,
        "meta_mean_motion_dot": 5.35e-06,
        "meta_mean_motion_ddot": 0,
        "tle_line1": "1 29980U 99025LE  25346.01268493  .00000535  00000+0  33802-3 0  9997",
        "tle_line2": "2 29980  98.5514 155.2078 0086876 249.8951 228.4395 14.06314025969826"
      },
      "geometry": {
        "type": "Point",
        "coordinates": [
          55.55058555600805,
          81.30277321890061
        ]
      }
    },
    {
      "type": "Feature",
      "properties": {
        "norad_id": 29982,
        "name": "FENGYUN 1C DEB",
        "group": "fengyun-1c-debris",
        "lat": 32.024591251650655,
        "lon": -5.983016307766095,
        "alt_km": 735.2701403464762,
        "timestamp": "2025-12-12T18:57:44.402690+00:00",
        "meta_object_name": "FENGYUN 1C DEB",
        "meta_object_id": "1999-025LG",
        "meta_epoch": "2025-12-12T07:24:32.252832",
        "meta_mean_motion": 14.66876187,
        "meta_eccentricity": 0.01218739,
        "meta_inclination": 99.4018,
        "meta_ra_of_asc_node": 167.5171,
        "meta_arg_of_pericenter": 289.6119,
        "meta_mean_anomaly": 198.0217,
        "meta_ephemeris_type": 0,
        "meta_classification_type": "U",
        "meta_norad_cat_id": 29982,
        "meta_element_set_no": 999,
        "meta_rev_at_epoch": 277,
        "meta_bstar": 0.0010658455,
        "meta_mean_motion_dot": 6.591e-05,
        "meta_mean_motion_ddot": 0,
        "tle_line1": "1 29982U 99025LG  25346.30870663  .00006591  00000+0  10658-2 0  9990",
        "tle_line2": "2 29982  99.4018 167.5171 0121873 289.6119 198.0217 14.66876187  2777"
      },
      "geometry": {
        "type": "Point",
        "coordinates": [
          -5.983016307766095,
          32.024591251650655
        ]
      }
    }
  ]
}